ONEWEB-0160             
1 48060U 21025U   23323.57467448  .00000182  00000+0  46289-3 0  9998
2 48060  87.8981 147.4193 0001503  46.6474 313.4780 13.13468506130085
ONEWEB-0163             
1 48061U 21025V   23323.55985620 -.00000082  00000+0 -25996-3 0  9997
2 48061  87.8985 147.4159 0001648  98.5024 261.6292 13.13469791130202
ONEWEB-0159             
1 48062U 21025W   23323.54926608 -.00000583  00000+0 -16324-2 0  9998
2 48062  87.8977 147.4037 0002281  93.5481 266.5909 13.13470157130123
ONEWEB-0164             
1 48063U 21025X   23323.60640936 -.00000018  00000+0 -85172-4 0  9995
2 48063  87.8986 147.4014 0001347  89.3677 270.7606 13.13470940130111
ONEWEB-0167             
1 48064U 21025Y   23323.56092363 -.00000079  00000+0 -25006-3 0  9992
2 48064  87.8986 147.4200 0001596  93.9514 266.1798 13.13471958130094
ONEWEB-0166             
1 48065U 21025Z   23323.58313088 -.00000670  00000+0 -18683-2 0  9994
2 48065  87.8982 147.4076 0001851  86.5844 273.5497 13.13476458130177
ONEWEB-0151             
1 48066U 21025AA  23323.58524762  .00000275  00000+0  71875-3 0  9990
2 48066  87.8985 147.4156 0001213  88.0806 272.0462 13.13468936130119
ONEWEB-0170             
1 48067U 21025AB  23323.59161037  .00000264  00000+0  68824-3 0  9992
2 48067  87.8987 147.4142 0000909  69.6332 290.4894 13.13468623130078
